*******************************************************************************
 Revised: May 13, 2021           Hubble Space Telescope                     -48
                                 http://hubblesite.org
 
 BACKGROUND:
  Launched: April 24, 1990 [from space shuttle Discovery (STS-31)]
  Deployed: April 25, 1990
 
  NOTE: HST ephemeris data can be unreliable during times of the following
        space shuttle servicing missions
 
         Servicing Mission 1 : 1993 (December 02-14)
         Servicing Mission 2 : 1997 (February 11-21)
         Servicing Mission 3A: 1999 (December 19-28)
         Servicing Mission 3B: 2002 (March    01-12)
         Servicing Mission 4 : 2009 (May      11-25)
 
 HUBBLE SPACE TELESCOPE:
   Length          : 43.5 ft (13.2 m)   Weight      : 24,500 lb (11,110 kg)
   Maximum Diameter: 14 ft (4.2 m)      Data return : ~120 Gigabytes (GB)/week
 
 Generic orbit facts:
   Altitude     : 569 km, or 353 miles  Inclination  : 28.5 deg. to equator
   Orbit period : 97 minutes            Orbital speed: 28,000 kph (17500 mph)
 
 SPACECRAFT TRAJECTORY:
   The trajectory here is a concatenation of publicly released JSpOC two-line
   elements. These can usually only be propagated reliably "days" into the
   future, and are updated frequently to maintain accuracy.
*******************************************************************************
 
 
*******************************************************************************
Ephemeris / WWW_USER Thu May 13 07:25:43 2021 Pasadena, USA      / Horizons
*******************************************************************************
Target body name: Hubble Space Telescope (-48)    {source: hst}
Center body name: Solar System Barycenter (0)     {source: DE441}
Center-site name: BODY CENTER
*******************************************************************************
Start time      : A.D. 2020-Apr-07 00:04:46.2746 TDB
Stop  time      : A.D. 2020-Apr-07 07:32:07.2345 TDB
Step-size       : 5 minutes
*******************************************************************************
Center geodetic : 0.00000000,0.00000000,0.0000000 {E-lon(deg),Lat(deg),Alt(km)}
Center cylindric: 0.00000000,0.00000000,0.0000000 {E-lon(deg),Dxy(km),Dz(km)}
Center radii    : (undefined)                                                  
Output units    : KM-S
Output type     : GEOMETRIC cartesian states
Output format   : 3 (position, velocity, LT, range, range-rate)
Reference frame : ICRF
*******************************************************************************
JDTDB
   X     Y     Z
   VX    VY    VZ
   LT    RG    RR
*******************************************************************************
$$SOE
2458946.669980030 = A.D. 2020-Apr-07 04:04:46.2746 TDB 
 X =-1.434819223974726E+08 Y =-4.041142865989015E+07 Z =-1.750938019401869E+07
 VX= 1.522256519682298E+01 VY=-2.496167887148529E+01 VZ=-1.460322907227741E+01
 LT= 5.006431936927905E+02 RG= 1.500890536181318E+08 RR=-6.127910738701238E+00
2458946.673452253 = A.D. 2020-Apr-07 04:09:46.2746 TDB 
 X =-1.434774183878425E+08 Y =-4.041856107943478E+07 Z =-1.751366516472668E+07
 VX= 1.468580368337999E+01 VY=-2.263125600903188E+01 VZ=-1.390983878147104E+01
 LT= 5.006369054613868E+02 RG= 1.500871684537828E+08 RR=-6.321300794709770E+00
2458946.676924475 = A.D. 2020-Apr-07 04:14:46.2746 TDB 
 X =-1.434731778049937E+08 Y =-4.042504558010788E+07 Z =-1.751769837560091E+07
 VX= 1.348245495480028E+01 VY=-2.068113818979794E+01 VZ=-1.294010800154975E+01
 LT= 5.006307789824687E+02 RG= 1.500853317816090E+08 RR=-5.807721405821932E+00
2458946.680396697 = A.D. 2020-Apr-07 04:19:46.2746 TDB 
 X =-1.434693827820312E+08 Y =-4.043102881877469E+07 Z =-1.752141197961805E+07
 VX= 1.174228795173670E+01 VY=-1.931952636403305E+01 VZ=-1.179841670714824E+01
 LT= 5.006254999587925E+02 RG= 1.500837491701253E+08 RR=-4.642911452539864E+00
2458946.683868919 = A.D. 2020-Apr-07 04:24:46.2746 TDB 
 X =-1.434661675944926E+08 Y =-4.043671092187823E+07 Z =-1.752477245527361E+07
 VX= 9.651713487006884E+00 VY=-1.869162771694417E+01 VZ=-1.060717871889061E+01
 LT= 5.006216629757701E+02 RG= 1.500825988715537E+08 RR=-2.951561393134288E+00
2458946.687341142 = A.D. 2020-Apr-07 04:29:46.2746 TDB 
 X =-1.434636044909525E+08 Y =-4.044232418624881E+07 Z =-1.752778412081798E+07
 VX= 7.434225994391095E+00 VY=-1.886485355490996E+01 VZ=-9.494039174171487E+00
 LT= 5.006197085983379E+02 RG= 1.500820129639395E+08 RR=-9.141193056585813E-01
2458946.690813364 = A.D. 2020-Apr-07 04:34:46.2746 TDB 
 X =-1.434616959668768E+08 Y =-4.044810846664283E+07 Z =-1.753048871226885E+07
 VX= 5.327304631174330E+00 VY=-1.982165999919280E+01 VZ=-8.578610263839305E+00
 LT= 5.006198764827789E+02 RG= 1.500820632944287E+08 RR= 1.251793336185842E+00
2458946.694285586 = A.D. 2020-Apr-07 04:39:46.2746 TDB 
 X =-1.434603742708402E+08 Y =-4.045428564899343E+07 Z =-1.753296104749506E+07
 VX= 3.557616703819982E+00 VY=-2.146071042975431E+01 VZ=-7.959825732460924E+00
 LT= 5.006221791858200E+02 RG= 1.500827536274334E+08 RR= 3.313905086390821E+00
2458946.697757808 = A.D. 2020-Apr-07 04:44:46.2746 TDB 
 X =-1.434595083401947E+08 Y =-4.046103577459864E+07 Z =-1.753530113560930E+07
 VX= 2.316681809761597E+00 VY=-2.360674357795063E+01 VZ=-7.705107152019076E+00
 LT= 5.006263997464247E+02 RG= 1.500840189196712E+08 RR= 5.049935647169818E+00
2458946.701230030 = A.D. 2020-Apr-07 04:49:46.2746 TDB 
 X =-1.434589176445651E+08 Y =-4.046847740087994E+07 Z =-1.753762347107779E+07
 VX= 1.739625804994791E+00 VY=-2.602880044873314E+01 VZ=-7.842646973616175E+00
 LT= 5.006321139888053E+02 RG= 1.500857320064401E+08 RR= 6.271898498918866E+00
2458946.704702253 = A.D. 2020-Apr-07 04:54:46.2746 TDB 
 X =-1.434583915889358E+08 Y =-4.047665450286685E+07 Z =-1.754004463101537E+07
 VX= 1.889809918072435E+00 VY=-2.846522085881515E+01 VZ=-8.357964785965057E+00
 LT= 5.006387357526132E+02 RG= 1.500877171612884E+08 RR= 6.847108568254739E+00
2458946.708174475 = A.D. 2020-Apr-07 04:59:46.2746 TDB 
 X =-1.434577123559517E+08 Y =-4.048553153841995E+07 Z =-1.754267056782174E+07
 VX= 2.751559874461530E+00 VY=-3.065249733570711E+01 VZ=-9.195361101906467E+00
 LT= 5.006455802890910E+02 RG= 1.500897691017029E+08 RR= 6.713058186501660E+00
2458946.711646697 = A.D. 2020-Apr-07 05:04:46.2746 TDB 
 X =-1.434566785730280E+08 Y =-4.049499729130301E+07 Z =-1.754558506186616E+07
 VX= 4.231977551512141E+00 VY=-3.235430374082799E+01 VZ=-1.026411237717843E+01
 LT= 5.006519386114125E+02 RG= 1.500916752787805E+08 RR= 5.884216124373387E+00
2458946.715118919 = A.D. 2020-Apr-07 05:09:46.2746 TDB 
 X =-1.434551271145290E+08 Y =-4.050487699741578E+07 Z =-1.754884064055100E+07
 VX= 6.171372749786729E+00 VY=-3.338714475474372E+01 VZ=-1.144852506071235E+01
 LT= 5.006571542943466E+02 RG= 1.500932389011874E+08 RR= 4.450136968484895E+00
2458946.718591142 = A.D. 2020-Apr-07 05:14:46.2746 TDB 
 X =-1.434529506658615E+08 Y =-4.051495130502809E+07 Z =-1.755245293333770E+07
 VX= 8.360762233445454E+00 VY=-3.363990349720492E+01 VZ=-1.262054689941228E+01
 LT= 5.006606942443426E+02 RG= 1.500943001514979E+08 RR= 2.565484465085628E+00
2458946.722063364 = A.D. 2020-Apr-07 05:19:46.2746 TDB 
 X =-1.434501092339135E+08 Y =-4.052497995568419E+07 Z =-1.755639901901427E+07
 VX= 1.056436483296920E+01 VY=-3.308555936325094E+01 VZ=-1.365354391039420E+01
 LT= 5.006622059845810E+02 RG= 1.500947533598198E+08 RR= 4.333223127432972E-01
2458946.725535586 = A.D. 2020-Apr-07 05:24:46.2746 TDB 
 X =-1.434466344385996E+08 Y =-4.053472767716788E+07 Z =-1.756061991169823E+07
 VX= 1.254485511948942E+01 VY=-3.178410316655587E+01 VZ=-1.443590443836542E+01
 LT= 5.006615555576764E+02 RG= 1.500945583667394E+08 RR=-1.716610195407367E+00
2458946.729007808 = A.D. 2020-Apr-07 05:29:46.2746 TDB 
 X =-1.434426261132497E+08 Y =-4.054398957413931E+07 Z =-1.756502693724814E+07
 VX= 1.408896446766352E+01 VY=-2.987624751912785E+01 VZ=-1.488314581043004E+01
 LT= 5.006588420141826E+02 RG= 1.500937448668655E+08 RR=-3.652603497521396E+00
2458946.732480030 = A.D. 2020-Apr-07 05:34:46.2746 TDB 
 X =-1.434382415049888E+08 Y =-4.055261327998590E+07 Z =-1.756951135054535E+07
 VX= 1.503074138880866E+01 VY=-2.756825503124669E+01 VZ=-1.494718539961667E+01
 LT= 5.006543867037128E+02 RG= 1.500924091983886E+08 RR=-5.166174551030181E+00
2458946.735952253 = A.D. 2020-Apr-07 05:39:46.2746 TDB 
 X =-1.434336781983518E+08 Y =-4.056051538623859E+07 Z =-1.757395615563203E+07
 VX= 1.526968221501926E+01 VY=-2.510930841618866E+01 VZ=-1.462158921423495E+01
 LT= 5.006486983035410E+02 RG= 1.500907038589190E+08 RR=-6.094854667020415E+00
2458946.739424475 = A.D. 2020-Apr-07 05:44:46.2746 TDB 
 X =-1.434291526709297E+08 Y =-4.056769028205684E+07 Z =-1.757824879789275E+07
 VX= 1.478140689029018E+01 VY=-2.276407528405971E+01 VZ=-1.394208081160683E+01
 LT= 5.006424174549970E+02 RG= 1.500888209078957E+08 RR=-6.339721631863364E+00
2458946.742896697 = A.D. 2020-Apr-07 05:49:46.2746 TDB 
 X =-1.434248769348631E+08 Y =-4.057421047157827E+07 Z =-1.758229328926624E+07
 VX= 1.361965994735686E+01 VY=-2.078393434616950E+01 VZ=-1.298231341270672E+01
 LT= 5.006362474101672E+02 RG= 1.500869711749901E+08 RR=-5.875576516444213E+00
2458946.746368919 = A.D. 2020-Apr-07 05:54:46.2746 TDB 
 X =-1.434210358757400E+08 Y =-4.058021849744867E+07 Z =-1.758602043788517E+07
 VX= 1.190979774599868E+01 VY=-1.938032343921594E+01 VZ=-1.184561963913943E+01
 LT= 5.006308785927099E+02 RG= 1.500853616440081E+08 RR=-4.752898305337396E+00
2458946.749841142 = A.D. 2020-Apr-07 05:59:46.2746 TDB 
 X =-1.434177676738166E+08 Y =-4.058591153858952E+07 Z =-1.758939514006320E+07
 VX= 9.835024314219536E+00 VY=-1.870292147901605E+01 VZ=-1.065388979822202E+01
 LT= 5.006269152172599E+02 RG= 1.500841734539399E+08 RR=-3.091909209236789E+00
